DATA_TYPE EVENT_CATALOGUE
IASPEI Reference Events
--EVENT--|--------------------ORIGIN (PRIME HYPOCENTRE)-------------------|------MAGNITUDES-----...
  EVENTID,AUTHOR   ,DATE      ,TIME       ,LAT     ,LON      ,DEPTH,DEPFIX,AUTHOR   ,TYPE  ,MAG 
 10525612,IASPEI   ,2008-02-09,07:12:06.43, 32.4850,-115.2935, 20.6,      ,IASPEI   ,MS    , 4.7,IASPEI   ,mb    , 4.9
 10526626,IASPEI   ,2008-02-11,18:29:32.64, 32.4765,-115.2965, 16.5,      ,IASPEI   ,MS    , 4.8,IASPEI   ,mb    , 4.8
 10525654,IASPEI   ,2008-02-12,04:32:38.82, 32.4772,-115.3086, 18.4,      ,IASPEI   ,MS    , 4.5,IASPEI   ,mb    , 4.7
 10623381,IASPEI   ,2008-02-12,09:27:18.50, 32.4854,-115.3250, 13.4,      ,IASPEI   ,MS    , 4.0,IASPEI   ,mb    , 4.0
 14234698,IASPEI   ,2008-02-29,02:49:12.44, 38.4156,  21.9903, 10.1,      ,IASPEI   ,mb    , 3.7
 13478148,IASPEI   ,2008-03-01,07:43:13.54, 44.0842,  11.2448,  9.2,      ,IASPEI   ,MS    , 4.1,IASPEI   ,mb    , 4.6
 13480921,IASPEI   ,2008-03-04,17:13:37.73, 23.2109, 120.7015, 11.3,      ,IASPEI   ,MS    , 3.1,IASPEI   ,mb    , 3.3
 13632464,IASPEI   ,2008-03-04,22:42:33.17, 23.2057, 120.7117, 11.9,      ,IASPEI   ,MS    , 3.5,IASPEI   ,mb    , 4.1
 13489936,IASPEI   ,2008-03-16,10:47:47.93, 38.3842,  21.9398,  9.2,      ,IASPEI   ,mb    , 3.8
 13496832,IASPEI   ,2008-03-26,02:43:37.57, 44.1260,  11.0228, 11.8,      ,IASPEI   ,mb    , 3.6
 13499033,IASPEI   ,2008-03-29,03:12:30.18, 40.6163,  34.8028, 15.5,      ,IASPEI   ,MS    , 4.0,IASPEI   ,mb    , 4.2
 13499044,IASPEI   ,2008-03-29,03:27:45.55, 40.5949,  34.8038, 12.7,      ,IASPEI   ,mb    , 3.6
 11151847,IASPEI   ,2008-04-02,10:14:08.97, 40.5889,  34.7567, 12.2,      ,IASPEI   ,MS    , 3.2,IASPEI   ,mb    , 3.8
 10909769,IASPEI   ,2008-04-23,01:55:28.43, 34.8496,-116.3282, 10.0,      ,IASPEI   ,MS    , 4.5,IASPEI   ,mb    , 3.0
 11477551,IASPEI   ,2008-04-30,23:27:53.09, 38.3946,  21.9034, 11.1,      ,IASPEI   ,mb    , 3.4
 11358300,IASPEI   ,2008-05-05,20:48:00.82, 37.7364,  26.9314, 12.8,      ,IASPEI   ,mb    , 3.3
 11254387,IASPEI   ,2008-05-13,10:07:49.06, 37.7597,  15.0440,  3.7,      ,IASPEI   ,mb    , 3.6
 11533935,IASPEI   ,2008-05-29,17:07:30.99, 63.9039, -21.1572, 16.2,      ,IASPEI   ,mb    , 3.6
 11533936,IASPEI   ,2008-05-29,17:09:41.75, 63.8953, -21.1645, 16.5,      ,IASPEI   ,mb    , 3.5
 11085920,IASPEI   ,2008-06-06,10:01:00.20, 38.3504,  21.8220, 11.7,      ,IASPEI   ,mb    , 3.6
 13379197,IASPEI   ,2008-07-02,16:18:52.30, 38.3424,  21.7701, 12.0,      ,IASPEI   ,MS    , 3.0,IASPEI   ,mb    , 4.0
 13075609,IASPEI   ,2008-07-03,00:05:37.86, 23.1773, 120.6803, 16.1,      ,IASPEI   ,mb    , 3.7
 13388246,IASPEI   ,2008-07-05,10:34:08.91, 38.0606,  21.5524, 18.2,      ,IASPEI   ,mb    , 3.9
 13388659,IASPEI   ,2008-07-10,07:49:54.19, 39.9876,  27.7297, 12.8,      ,IASPEI   ,MS    , 3.8,IASPEI   ,mb    , 4.3
 11121235,IASPEI   ,2008-07-14,03:51:40.85, 45.6688,  10.5222,  8.2,      ,IASPEI   ,mb    , 3.5
 11812206,IASPEI   ,2008-07-20,20:37:29.00, 38.4373,  22.0006,  7.4,      ,IASPEI   ,MS    , 3.0,IASPEI   ,mb    , 3.6
 13389761,IASPEI   ,2008-07-21,18:22:36.99, 38.2978,  21.8898,  7.0,      ,IASPEI   ,mb    , 3.6
 11163248,IASPEI   ,2008-07-24,21:15:36.71, 38.2814,  21.8806,  8.8,      ,IASPEI   ,MS    , 3.4,IASPEI   ,mb    , 4.0
 11153791,IASPEI   ,2008-07-26,20:15:11.04, 23.2103, 120.5505, 15.1,      ,IASPEI   ,mb    , 3.4
 11153792,IASPEI   ,2008-07-26,20:51:22.90, 23.2203, 120.5613, 13.7,      ,IASPEI   ,mb    , 3.7
 11908571,IASPEI   ,2008-08-22,02:55:57.91, 24.0948, 121.3170,  6.8,      ,IASPEI   ,mb    , 3.8
 11255494,IASPEI   ,2008-08-28,03:37:09.20, 40.6675,  20.6992, 10.7,      ,IASPEI   ,mb    , 3.7
 11909365,IASPEI   ,2008-09-03,10:39:06.81, 38.3037,  21.7757, 11.2,      ,IASPEI   ,mb    , 3.9
 13393528,IASPEI   ,2008-09-05,21:32:11.93, 40.6299,  23.0307,  7.8,      ,IASPEI   ,mb    , 3.8
 11660881,IASPEI   ,2008-09-23,09:09:42.87, 39.4319,  33.0465,  4.6,      ,IASPEI   ,MS    , 3.4,IASPEI   ,mb    , 4.3
 11344593,IASPEI   ,2008-10-10,08:08:45.39, 50.2097,  12.4476, 11.4,      ,IASPEI   ,mb    , 3.7
 12068728,IASPEI   ,2008-10-16,03:38:53.23, 39.9508,  23.6803, 13.7,      ,IASPEI   ,mb    , 3.4
 11389412,IASPEI   ,2008-10-19,10:54:28.41, 39.1598,  29.4280,  7.5,      ,IASPEI   ,mb    , 4.0
 13397901,IASPEI   ,2008-10-23,14:44:58.67, 38.4543,  21.9736,  8.6,      ,IASPEI   ,mb    , 4.1
 12070901,IASPEI   ,2008-10-23,14:49:49.68, 38.4653,  21.9753, 10.2,      ,IASPEI   ,mb    , 3.6
 12070913,IASPEI   ,2008-10-23,16:25:58.46, 38.4603,  21.9669, 11.4,      ,IASPEI   ,mb    , 3.6
 11374805,IASPEI   ,2008-10-28,08:30:10.45, 50.2028,  12.4462, 10.1,      ,IASPEI   ,mb    , 3.7
 12076287,IASPEI   ,2008-12-08,02:55:12.93, 38.4466,  21.9826, 11.3,      ,IASPEI   ,mb    , 3.1
 12076319,IASPEI   ,2008-12-08,07:48:30.66, 38.4079,  21.9973,  6.2,      ,IASPEI   ,mb    , 3.3
 11751697,IASPEI   ,2008-12-14,20:18:02.39, 37.9263,  22.2952, 12.3,      ,IASPEI   ,mb    , 3.7
 12077949,IASPEI   ,2008-12-17,19:02:10.26, 38.3398,  21.8222, 12.8,      ,IASPEI   ,mb    , 3.6

